1 33105U 08032A   10030.14064471 -.00000050  00000-0  46041-4 0  9991
2 33105 066.0443 319.4960 0007689 271.9374 088.0750 12.80929687 75419
1 33105U 08032A   10030.76525258 -.00000050 +00000-0 +46041-4 0  9994
2 33105 066.0440 318.1988 0007683 271.8697 088.1439 12.80929736075491
1 33105U 08032A   10031.15563237 -.00000050  00000-0  46041-4 0  9997
2 33105 066.0444 317.3878 0007663 272.0395 087.9726 12.80929650 75547
1 33105U 08032A   10031.78024051 -.00000050 +00000-0 +46041-4 0  9992
2 33105 066.0442 316.0904 0007659 272.1598 087.8542 12.80929681075620
1 33105U 08032A   10032.17062029 -.00000050  00000-0  46041-4 0  9993
2 33105 066.0445 315.2796 0007649 272.1110 087.9019 12.80929628 75678
1 33105U 08032A   10032.79522810 -.00000050 +00000-0 +46041-4 0  9990
2 33105 066.0443 313.9822 0007632 271.8572 088.1573 12.80929724075755
1 33105U 08032A   10033.41983596 -.00000050  00000-0  46041-4 0  9992
2 33105 066.0444 312.6851 0007615 271.7822 088.2328 12.80929743 75831
1 33105U 08032A   10033.81021561 -.00000050 +00000-0 +46041-4 0  9991
2 33105 066.0444 311.8746 0007624 271.6529 088.3616 12.80929766075889
1 33105U 08032A   10034.51289935 -.00000050  00000-0  46041-4 0  9990
2 33105 066.0445 310.4153 0007608 271.5732 088.4418 12.80929797 75979
1 33105U 08032A   10034.90327902 -.00000050 +00000-0 +46041-4 0  9990
2 33105 066.0445 309.6049 0007626 271.5001 088.5134 12.80929722076023
1 33105U 08032A   10035.52788675 -.00000050  00000-0  46041-4 0  9997
2 33105 066.0444 308.3079 0007622 271.5557 088.4591 12.80929870 76102
1 33105U 08032A   10035.84019044 -.00000050 +00000-0 +46041-4 0  9999
2 33105 066.0443 307.6594 0007602 271.6297 088.3841 12.80929848076141
1 33105U 08032A   10036.93325370 -.00000050  00000-0  46041-4 0  9992
2 33105 066.0439 305.3893 0007597 271.7954 088.2189 12.80929966 76287
1 33105U 08032A   10036.93325370 -.00000050 +00000-0 +46041-4 0  9992
2 33105 066.0439 305.3893 0007597 271.7954 088.2189 12.80929966076287
1 33105U 08032A   10037.87016496 -.00000050 +00000-0 +46041-4 0  9992
2 33105 066.0438 303.4434 0007561 272.0410 087.9728 12.80930029076409
1 33105U 08032A   10038.18246898 -.00000050  00000-0  46041-4 0  9998
2 33105 066.0434 302.7946 0007564 272.1370 087.8778 12.80930007 76448
1 33105U 08032A   10038.80707650 -.00000050 +00000-0 +46041-4 0  9995
2 33105 066.0433 301.4974 0007542 272.3780 087.6364 12.80930057076520
1 33105U 08032A   10039.43168428 -.00000050  00000-0  46041-4 0  9999
2 33105 066.0430 300.2000 0007542 272.5147 087.5008 12.80930050 76609
1 33105U 08032A   10039.90013985 -.00000050 +00000-0 +46041-4 0  9998
2 33105 066.0432 299.2272 0007537 272.3387 087.6767 12.80930099076669
1 33105U 08032A   10040.52474734 -.00000050  00000-0  46041-4 0  9991
2 33105 066.0431 297.9299 0007527 272.3729 087.6426 12.80930113 76749
1 33105U 08032A   10041.77396268 -.00000050  00000-0  46041-4 0  9994
2 33105 066.0432 295.3354 0007498 272.2188 087.7966 12.80930043 76909
1 33105U 08032A   10042.86702585 -.00000050  00000-0  46041-4 0  9998
2 33105 066.0432 293.0651 0007481 271.8261 088.1895 12.80930041 77043
1 33105U 08032A   10043.88201291 -.00000050 +00000-0 +46041-4 0  9999
2 33105 066.0432 290.9569 0007479 271.9554 088.0601 12.80930129077175
1 33105U 08032A   10044.89700004 -.00000050 +00000-0 +46041-4 0  9997
2 33105 066.0432 288.8489 0007480 271.9118 088.1031 12.80930127077301
1 33105U 08032A   10045.75583552 -.00000050 +00000-0 +46041-4 0  9990
2 33105 066.0430 287.0650 0007476 272.1699 087.8459 12.80930172077414
1 33105U 08032A   10046.84889840 -.00000050 +00000-0 +46041-4 0  9990
2 33105 066.0425 284.7947 0007457 272.2069 087.8092 12.80930290077551
1 33105U 08032A   10047.86388528 -.00000050 +00000-0 +46041-4 0  9990
2 33105 066.0421 282.6866 0007456 272.5732 087.4416 12.80930280077682
1 33105U 08032A   10048.25426520 -.00000050  00000-0  46041-4 0  9999
2 33105 066.0418 281.8758 0007473 272.4034 087.6133 12.80930293 77730
1 33105U 08032A   10048.80079640 -.00000050 +00000-0 +46041-4 0  9997
2 33105 066.0417 280.7409 0007464 272.5017 087.5134 12.80930307077806
1 33105U 08032A   10049.73770729 -.00000050  00000-0  46041-4 0  9996
2 33105 066.0411 278.7946 0007423 272.3748 087.6412 12.80930435 77922
1 33105U 08032A   10050.90884576 -.00000050  00000-0  46041-4 0  9993
2 33105 066.0409 276.3621 0007395 272.2306 087.7849 12.80930464 78074
1 33105U 08032A   10050.90884576 -.00000050 +00000-0 +46041-4 0  9993
2 33105 066.0409 276.3621 0007395 272.2306 087.7849 12.80930464078074
1 33105U 08032A   10051.76768085 -.00000050 +00000-0 +46041-4 0  9994
2 33105 066.0407 274.5779 0007380 272.3829 087.6333 12.80930525078188
1 33105U 08032A   10052.07998463 -.00000050  00000-0  46041-4 0  9994
2 33105 066.0407 273.9287 0007373 272.3409 087.6764 12.80930530 78220
1 33105U 08032A   10052.70459174 -.00000050 +00000-0 +46041-4 0  9995
2 33105 066.0405 272.6314 0007370 272.3632 087.6535 12.80930553078300
1 33105U 08032A   10053.09497135 -.00000050  00000-0  46041-4 0  9997
2 33105 066.0406 271.8203 0007337 272.5847 087.4328 12.80930612 78351
1 33105U 08032A   10053.79765438 -.00000050 +00000-0 +46041-4 0  9998
2 33105 066.0406 270.3608 0007325 272.1291 087.8879 12.80930610078443
1 33105U 08032A   10054.10995809 -.00000050  00000-0  46041-4 0  9991
2 33105 066.0407 269.7121 0007348 272.0436 087.9734 12.80930551 78480
1 33105U 08032A   10054.89071722 -.00000050 +00000-0 +46041-4 0  9996
2 33105 066.0408 268.0904 0007315 272.0624 087.9539 12.80930514078588
1 33105U 08032A   10055.20302116 -.00000050  00000-0  46041-4 0  9996
2 33105 066.0408 267.4416 0007319 271.9656 088.0521 12.80930490 78627
1 33105U 08032A   10055.90570436 -.00000050 +00000-0 +46041-4 0  9995
2 33105 066.0409 265.9826 0007314 271.9250 088.0917 12.80930452078718
1 33105U 08032A   10056.21800821 -.00000050  00000-0  46041-4 0  9994
2 33105 066.0407 265.3337 0007314 271.8532 088.1648 12.80930441 78753
1 33105U 08032A   10056.84261524 -.00000050 +00000-0 +46041-4 0  9994
2 33105 066.0407 264.0366 0007346 271.7546 088.2624 12.80930499078837
1 33105U 08032A   10057.46722258 -.00000050  00000-0  46041-4 0  9999
2 33105 066.0407 262.7396 0007356 271.8106 088.2067 12.80930494 78914
1 33105U 08032A   10057.85760208 -.00000050 +00000-0 +46041-4 0  9999
2 33105 066.0408 261.9286 0007358 271.8929 088.1235 12.80930462078965
1 33105U 08032A   10058.48220950 -.00000050  00000-0  46041-4 0  9994
2 33105 066.0406 260.6312 0007358 272.0601 087.9575 12.80930514 79041
1 33105U 08032A   10058.79451303 -.00000050 +00000-0 +46041-4 0  9996
2 33105 066.0407 259.9828 0007353 272.1360 087.8803 12.80930488079080
1 33105U 08032A   10059.49719616 -.00000050  00000-0  46041-4 0  9998
2 33105 066.0403 258.5228 0007358 272.3443 087.6740 12.80930642 79174
1 33105U 08032A   10059.80949953 -.00000050 +00000-0 +46041-4 0  9992
2 33105 066.0405 257.8741 0007344 272.5929 087.4243 12.80930722079214
1 33105U 08032A   10060.43410665 -.00000050 +00000-0 +46041-4 0  9996
2 33105 066.0400 256.5767 0007354 272.6606 087.3574 12.80930787079292
1 33105U 08032A   10061.05871358 -.00000050  00000-0  46041-4 0  9995
2 33105 066.0399 255.2792 0007356 272.4481 087.5690 12.80930788 79375
1 33105U 08032A   10061.76139644 -.00000050 +00000-0 +46041-4 0  9998
2 33105 066.0397 253.8196 0007369 272.4171 087.5994 12.80930795079460
1 33105U 08032A   10062.07370013 -.00000050  00000-0  46041-4 0  9990
2 33105 066.0392 253.1706 0007349 272.3172 087.7003 12.80930789 79504
1 33105U 08032A   10062.69830698 -.00000050 +00000-0 +46041-4 0  9998
2 33105 066.0391 251.8729 0007338 272.3376 087.6793 12.80930864079584
1 33105U 08032A   10063.08868650 -.00000050  00000-0  46041-4 0  9991
2 33105 066.0391 251.0616 0007341 272.3802 087.6374 12.80930867 79633
1 33105U 08032A   10063.79136936 -.00000050 +00000-0 +46041-4 0  9994
2 33105 066.0391 249.6025 0007337 272.2991 087.7176 12.80930870079728
1 33105U 08032A   10064.10367306 -.00000050  00000-0  46041-4 0  9997
2 33105 066.0389 248.9537 0007351 272.3166 087.7001 12.80930798 79766
1 33105U 08032A   10064.72828019 -.00000050 +00000-0 +46041-4 0  9998
2 33105 066.0390 247.6559 0007337 272.3127 087.7034 12.80930768079841
1 33105U 08032A   10065.11865989 -.00000050  00000-0  46041-4 0  9999
2 33105 066.0388 246.8448 0007355 272.3320 087.6850 12.80930702 79899
1 33105U 08032A   10065.74326701 -.00000050 +00000-0 +46041-4 0  9992
2 33105 066.0389 245.5474 0007362 272.2078 087.8086 12.80930689079978
1 33105U 08032A   10066.13364662 -.00000050  00000-0  46041-4 0  9994
2 33105 066.0390 244.7363 0007361 272.3442 087.6730 12.80930696 80023
1 33105U 08032A   10066.68017771 -.00000050 +00000-0 +46041-4 0  9990
2 33105 066.0390 243.6011 0007382 272.1839 087.8326 12.80930709080097
1 33105U 08032A   10067.38286092 -.00000050  00000-0  46041-4 0  9992
2 33105 066.0391 242.1415 0007383 272.2960 087.7208 12.80930680 80183
1 33105U 08032A   10067.77324040 -.00000050 +00000-0 +46041-4 0  9991
2 33105 066.0393 241.3304 0007393 272.0577 087.9585 12.80930635080232
1 33105U 08032A   10068.39784771 -.00000050  00000-0  46041-4 0  9991
2 33105 066.0395 240.0330 0007406 272.0510 087.9657 12.80930632 80317
1 33105U 08032A   10068.78822719 -.00000050 +00000-0 +46041-4 0  9999
2 33105 066.0395 239.2219 0007402 271.9846 088.0316 12.80930620080365
1 33105U 08032A   10069.41283442 -.00000050  00000-0  46041-4 0  9994
2 33105 066.0396 237.9245 0007402 271.9932 088.0241 12.80930677 80444
1 33105U 08032A   10069.72513786 -.00000050 +00000-0 +46041-4 0  9995
2 33105 066.0395 237.2755 0007403 271.9969 088.0197 12.80930687080488
1 33105U 08032A   10070.42782079 -.00000050  00000-0  46041-4 0  9997
2 33105 066.0393 235.8160 0007405 272.0364 087.9802 12.80930727 80579
1 33105U 08032A   10070.74012437 -.00000050 +00000-0 +46041-4 0  9996
2 33105 066.0393 235.1673 0007405 271.9551 088.0610 12.80930701080613
1 33105U 08032A   10071.44280746 -.00000050  00000-0  46041-4 0  9994
2 33105 066.0394 233.7079 0007411 272.0794 087.9373 12.80930742 80705
